CSC-2                   
1 58021U 23155F   26068.78622407  .00012305  00000+0  57637-3 0  9991
2 58021  97.5491 145.3107 0004628 207.4869 152.6121 15.19850023133076
LEMUR-2-DEANANDMAEVE    
1 66678U 25276N   26067.79441971  .00011044  00000+0  54059-3 0  9993
2 66678  97.4282 143.0037 0005627   4.7019 355.4267 15.18340037 15174
